GPS BIIF-10 (PRN 08)    
1 40730U 15033A   26171.21261907 -.00000056  00000+0  00000+0 0  9991
2 40730  53.9799 266.9618 0115099  30.2397 330.4594  2.00556106 80051
GPS BIIF-11 (PRN 10)    
1 41019U 15062A   26170.77000951 -.00000091  00000+0  00000+0 0  9993
2 41019  56.9611  30.7115 0112009 231.0751 127.9690  2.00567013 77882
GPS BIIF-12 (PRN 32)    
1 41328U 16007A   26164.87780105 -.00000028  00000+0  00000+0 0  9996
2 41328  55.5220  89.5909 0096120 247.4205 111.5460  2.00551861 75773
GPS BIII-1  (PRN 04)    
1 43873U 18109A   26171.21185719 -.00000019  00000+0  00000+0 0  9994
2 43873  55.6840  92.0670 0038226 197.8624 309.8411  2.00561777 55132
GPS BIII-2  (PRN 18)    
1 44506U 19056A   26170.88008800 -.00000092  00000+0  00000+0 0  9998
2 44506  55.6357 331.0347 0062144 197.6254 334.2547  2.00569711 50121
GPS BIII-3  (PRN 23)    
1 45854U 20041A   26170.72346014 -.00000092  00000+0  00000+0 0  9996
2 45854  56.6713  28.8441 0064001 204.6185 152.4669  2.00558579 44080
GPS BIII-4  (PRN 14)    
1 46826U 20078A   26171.27904749  .00000028  00000+0  00000+0 0  9990
2 46826  53.9792 210.6528 0073634 207.3587 167.3205  2.00564914 41574
GPS BIII-5  (PRN 11)    
1 48859U 21054A   26171.00487014 -.00000094  00000+0  00000+0 0  9999
2 48859  55.1728 332.3454 0025356 228.5950 134.3763  2.00568793 36815
GPS BIII-6  (PRN 28)    
1 55268U 23009A   26170.94526515  .00000063  00000+0  00000+0 0  9990
2 55268  55.1232 148.4103 0006177 317.2306  41.0383  2.00571329 25296
GPS BIII-7  (PRN 01)    
1 62339U 24242A   26171.07932679 -.00000095  00000+0  00000+0 0  9990
2 62339  54.8474 334.0632 0017493   4.3355 173.0364  2.00571569 11317
GPS BIII-8  (PRN 21)    
1 64202U 25116A   26170.83100291 -.00000093  00000+0  00000+0 0  9990
2 64202  55.2365  31.0232 0008580 338.6796 202.2641  2.00575689  7923
GPS BIII-9  (PRN 20)    
1 67588U 26017A   26171.18867265 -.00000026  00000+0  00000+0 0  9997
2 67588  55.0902  88.6347 0021974 258.6417 101.1180  2.00571091431677
GPS BIII-10 (PRN 13)    
1 68791U 26087A   26170.40878032  .00000031  00000+0  00000+0 0  9994
2 68791  54.9628 207.6996 0020600 106.9834 255.2232  2.00570427   889
